ONEWEB-0108             
1 48076U 21025AL  24032.32674284  .00000137  00000+0  34104-3 0  9997
2 48076  87.9006 132.7780 0001823 115.6025 244.5292 13.13468949139851
ONEWEB-0169             
1 48077U 21025AM  24032.73937774  .00000167  00000+0  42241-3 0  9993
2 48077  87.9011 132.7020 0001746 114.3849 245.7463 13.13468353138568
ONEWEB-0176             
1 48210U 21031A   24032.57802067 -.00000533  00000+0 -14726-2 0  9992
2 48210  87.8951 102.1942 0001921 104.8032 255.3311 13.14504752134465
ONEWEB-0184             
1 48211U 21031B   24032.62717364  .00000126  00000+0  30606-3 0  9996
2 48211  87.8952 102.1737 0002690  84.9900 275.1536 13.14501747134443
ONEWEB-0179             
1 48212U 21031C   24032.59703385 -.00000204  00000+0 -58399-3 0  9999
2 48212  87.8955 102.1773 0001750 100.7286 259.4041 13.14502236134481
ONEWEB-0180             
1 48213U 21031D   24032.63033838  .00000225  00000+0  57258-3 0  9998
2 48213  87.8954 102.1731 0001709  97.8004 262.3320 13.14501450134371
ONEWEB-0218             
1 48214U 21031E   24033.18537322  .00000234  00000+0  59705-3 0  9996
2 48214  87.8954 102.0642 0002456  76.1409 283.9994 13.14502522134604
ONEWEB-0209             
1 48215U 21031F   24032.64144495  .00000253  00000+0  64819-3 0  9995
2 48215  87.8957 102.2032 0001700 101.3204 258.8117 13.14501517134531
